IRIDIUM 36 [-]          
1 24967U 97056C   23338.27000794  .00000721  00000+0  23911-3 0  9991
2 24967  86.3985  48.5026 0002167  89.0763 271.0682 14.36537683371668
IRIDIUM 39 [-]          
1 25042U 97069D   23338.40927438  .00001366  00000+0  36542-3 0  9998
2 25042  86.3911  91.3281 0018989  23.7219 336.4856 14.47547068368059
IRIDIUM 38 [-]          
1 25043U 97069E   23337.85214873  .00001045  00000+0  34636-3 0  9995
2 25043  86.3948 109.1636 0003369 124.0336 236.1181 14.36997101365579
IRIDIUM 42 [-]          
1 25077U 97077A   23337.46369242  .00000978  00000+0  33485-3 0  9994
2 25077  86.3949 114.8129 0002467 106.8551 253.2916 14.35296686360594
IRIDIUM 44 [-]          
1 25078U 97077B   23338.43300236  .00000946  00000+0  29963-3 0  9992
2 25078  86.3947  97.8327 0003861  82.2521 277.9116 14.39106046363059
IRIDIUM 45 [-]          
1 25104U 97082A   23338.02969328  .00010818  00000+0  68273-3 0  9992
2 25104  86.3745 313.9042 0173070 229.2845 129.3247 14.97297808367705
IRIDIUM 24 [-]          
1 25105U 97082B   23337.51179570  .00001167  00000+0  35768-3 0  9998
2 25105  86.3888 318.1542 0013295 125.6142 234.6298 14.40864430362303
IRIDIUM 51 [-]          
1 25262U 98018A   23338.50234960  .00010018  00000+0  53874-3 0  9990
2 25262  86.3904 324.0754 0160504 179.6846 180.4521 15.04208140362154
